{
  "type": "FeatureCollection",
  "features": [
    {
      "type": "Feature",
      "properties": {
        "norad_id": 45807,
        "name": "BEIDOU-3 G3 (C61)",
        "group": "gnss",
        "lat": 1.990223272791571,
        "lon": 168.39294759110754,
        "alt_km": 35812.16639863683,
        "timestamp": "2025-12-27T21:25:02.755770+00:00",
        "meta_object_name": "BEIDOU-3 G3 (C61)",
        "meta_object_id": "2020-040A",
        "meta_epoch": "2025-12-27T06:40:41.652768",
        "meta_mean_motion": 1.00266195,
        "meta_eccentricity": 0.0006581,
        "meta_inclination": 2.0241,
        "meta_ra_of_asc_node": 66.7054,
        "meta_arg_of_pericenter": 308.3364,
        "meta_mean_anomaly": 291.6349,
        "meta_ephemeris_type": 0,
        "meta_classification_type": "U",
        "meta_norad_cat_id": 45807,
        "meta_element_set_no": 999,
        "meta_rev_at_epoch": 2034,
        "meta_bstar": 0,
        "meta_mean_motion_dot": -3.32e-06,
        "meta_mean_motion_ddot": 0,
        "tle_line1": "1 45807U 20040A   25361.27825987 -.00000332  00000+0  00000+0 0  9992",
        "tle_line2": "2 45807   2.0241  66.7054 0006581 308.3364 291.6349  1.00266195 20343"
      },
      "geometry": {
        "type": "Point",
        "coordinates": [
          168.39294759110754,
          1.990223272791571
        ]
      }
    },
    {
      "type": "Feature",
      "properties": {
        "norad_id": 45854,
        "name": "GPS BIII-3  (PRN 23)",
        "group": "gnss",
        "lat": 43.39638978778986,
        "lon": 176.9573987357352,
        "alt_km": 20146.565813279176,
        "timestamp": "2025-12-27T21:25:02.755788+00:00",
        "meta_object_name": "GPS BIII-3  (PRN 23)",
        "meta_object_id": "2020-041A",
        "meta_epoch": "2025-12-26T05:40:05.983104",
        "meta_mean_motion": 2.00561528,
        "meta_eccentricity": 0.0060682,
        "meta_inclination": 56.556,
        "meta_ra_of_asc_node": 35.6606,
        "meta_arg_of_pericenter": 203.8008,
        "meta_mean_anomaly": 165.623,
        "meta_ephemeris_type": 0,
        "meta_classification_type": "U",
        "meta_norad_cat_id": 45854,
        "meta_element_set_no": 999,
        "meta_rev_at_epoch": 4057,
        "meta_bstar": 0,
        "meta_mean_motion_dot": -5e-07,
        "meta_mean_motion_ddot": 0,
        "tle_line1": "1 45854U 20041A   25360.23618036 -.00000050  00000+0  00000+0 0  9992",
        "tle_line2": "2 45854  56.5560  35.6606 0060682 203.8008 165.6230  2.00561528 40572"
      },
      "geometry": {
        "type": "Point",
        "coordinates": [
          176.9573987357352,
          43.39638978778986
        ]
      }
    },
    {
      "type": "Feature",
      "properties": {
        "norad_id": 46114,
        "name": "GALAXY 30 (WAAS/PRN 135)",
        "group": "gnss",
        "lat": -0.02890769679359017,
        "lon": -67.12720295917279,
        "alt_km": 35776.67800086769,
        "timestamp": "2025-12-27T21:25:02.755806+00:00",
        "meta_object_name": "GALAXY 30 (WAAS/PRN 135)",
        "meta_object_id": "2020-056C",
        "meta_epoch": "2025-12-27T10:41:41.072928",
        "meta_mean_motion": 1.00271311,
        "meta_eccentricity": 0.0002344,
        "meta_inclination": 0.0127,
        "meta_ra_of_asc_node": 356.392,
        "meta_arg_of_pericenter": 279.9567,
        "meta_mean_anomaly": 215.2437,
        "meta_ephemeris_type": 0,
        "meta_classification_type": "U",
        "meta_norad_cat_id": 46114,
        "meta_element_set_no": 999,
        "meta_rev_at_epoch": 1957,
        "meta_bstar": 0,
        "meta_mean_motion_dot": 5.9e-07,
        "meta_mean_motion_ddot": 0,
        "tle_line1": "1 46114U 20056C   25361.44561427  .00000059  00000+0  00000+0 0  9991",
        "tle_line2": "2 46114   0.0127 356.3920 0002344 279.9567 215.2437  1.00271311 19576"
      },
      "geometry": {
        "type": "Point",
        "coordinates": [
          -67.12720295917279,
          -0.02890769679359017
        ]
      }
    },
    {
      "type": "Feature",
      "properties": {
        "norad_id": 46805,
        "name": "COSMOS 2547 (705K)",
        "group": "gnss",
        "lat": 4.045762752962292,
        "lon": 16.26670818042686,
        "alt_km": 19120.45492321798,
        "timestamp": "2025-12-27T21:25:02.755834+00:00",
        "meta_object_name": "COSMOS 2547 (705K)",
        "meta_object_id": "2020-075A",
        "meta_epoch": "2025-12-27T04:39:45.573408",
        "meta_mean_motion": 2.13100125,
        "meta_eccentricity": 0.0006076,
        "meta_inclination": 64.597,
        "meta_ra_of_asc_node": 198.2135,
        "meta_arg_of_pericenter": 227.2571,
        "meta_mean_anomaly": 132.747,
        "meta_ephemeris_type": 0,
        "meta_classification_type": "U",
        "meta_norad_cat_id": 46805,
        "meta_element_set_no": 999,
        "meta_rev_at_epoch": 4024,
        "meta_bstar": 0,
        "meta_mean_motion_dot": 1.2e-06,
        "meta_mean_motion_ddot": 0,
        "tle_line1": "1 46805U 20075A   25361.19427747  .00000120  00000+0  00000+0 0  9996",
        "tle_line2": "2 46805  64.5970 198.2135 0006076 227.2571 132.7470  2.13100125 40249"
      },
      "geometry": {
        "type": "Point",
        "coordinates": [
          16.26670818042686,
          4.045762752962292
        ]
      }
    },
    {
      "type": "Feature",
      "properties": {
        "norad_id": 46826,
        "name": "GPS BIII-4  (PRN 14)",
        "group": "gnss",
        "lat": 53.58037792623613,
        "lon": -42.25494971573457,
        "alt_km": 20227.351423629152,
        "timestamp": "2025-12-27T21:25:02.755854+00:00",
        "meta_object_name": "GPS BIII-4  (PRN 14)",
        "meta_object_id": "2020-078A",
        "meta_epoch": "2025-12-16T01:06:13.902336",
        "meta_mean_motion": 2.00566891,
        "meta_eccentricity": 0.0064754,
        "meta_inclination": 54.0144,
        "meta_ra_of_asc_node": 218.2068,
        "meta_arg_of_pericenter": 203.3802,
        "meta_mean_anomaly": 339.3962,
        "meta_ephemeris_type": 0,
        "meta_classification_type": "U",
        "meta_norad_cat_id": 46826,
        "meta_element_set_no": 999,
        "meta_rev_at_epoch": 3783,
        "meta_bstar": 0,
        "meta_mean_motion_dot": 6.7e-07,
        "meta_mean_motion_ddot": 0,
        "tle_line1": "1 46826U 20078A   25350.04599424  .00000067  00000+0  00000+0 0  9996",
        "tle_line2": "2 46826  54.0144 218.2068 0064754 203.3802 339.3962  2.00566891 37830"
      },
      "geometry": {
        "type": "Point",
        "coordinates": [
          -42.25494971573457,
          53.58037792623613
        ]
      }
    },
    {
      "type": "Feature",
      "properties": {
        "norad_id": 48859,
        "name": "GPS BIII-5  (PRN 11)",
        "group": "gnss",
        "lat": -53.64230097275148,
        "lon": -91.17474902048238,
        "alt_km": 20144.496187968434,
        "timestamp": "2025-12-27T21:25:02.755873+00:00",
        "meta_object_name": "GPS BIII-5  (PRN 11)",
        "meta_object_id": "2021-054A",
        "meta_epoch": "2025-12-08T04:14:32.423424",
        "meta_mean_motion": 2.00553627,
        "meta_eccentricity": 0.0024678,
        "meta_inclination": 55.2581,
        "meta_ra_of_asc_node": 340.1367,
        "meta_arg_of_pericenter": 233.3993,
        "meta_mean_anomaly": 212.8594,
        "meta_ephemeris_type": 0,
        "meta_classification_type": "U",
        "meta_norad_cat_id": 48859,
        "meta_element_set_no": 999,
        "meta_rev_at_epoch": 3292,
        "meta_bstar": 0,
        "meta_mean_motion_dot": -8.6e-07,
        "meta_mean_motion_ddot": 0,
        "tle_line1": "1 48859U 21054A   25342.17676416 -.00000086  00000+0  00000+0 0  9993",
        "tle_line2": "2 48859  55.2581 340.1367 0024678 233.3993 212.8594  2.00553627 32922"
      },
      "geometry": {
        "type": "Point",
        "coordinates": [
          -91.17474902048238,
          -53.64230097275148
        ]
      }
    },
    {
      "type": "Feature",
      "properties": {
        "norad_id": 49336,
        "name": "QZS-1R (QZSS/PRN 196)",
        "group": "gnss",
        "lat": 35.248918215518856,
        "lon": -166.79710043235212,
        "alt_km": 38836.762459328056,
        "timestamp": "2025-12-27T21:25:02.755891+00:00",
        "meta_object_name": "QZS-1R (QZSS/PRN 196)",
        "meta_object_id": "2021-096A",
        "meta_epoch": "2025-12-24T14:02:51.747360",
        "meta_mean_motion": 1.00253394,
        "meta_eccentricity": 0.0757125,
        "meta_inclination": 37.101,
        "meta_ra_of_asc_node": 82.185,
        "meta_arg_of_pericenter": 271.5387,
        "meta_mean_anomaly": 84.3648,
        "meta_ephemeris_type": 0,
        "meta_classification_type": "U",
        "meta_norad_cat_id": 49336,
        "meta_element_set_no": 999,
        "meta_rev_at_epoch": 1526,
        "meta_bstar": 0,
        "meta_mean_motion_dot": -2.38e-06,
        "meta_mean_motion_ddot": 0,
        "tle_line1": "1 49336U 21096A   25358.58532115 -.00000238  00000+0  00000+0 0  9998",
        "tle_line2": "2 49336  37.1010  82.1850 0757125 271.5387  84.3648  1.00253394 15267"
      },
      "geometry": {
        "type": "Point",
        "coordinates": [
          -166.79710043235212,
          35.248918215518856
        ]
      }
    }
  ]
}